RADUGA-1M 3             
1 39375U 13062A   26117.05322521  .00000147  00000+0  00000+0 0  9996
2 39375   5.8315  72.9911 0001072 259.1815 297.0290  1.00271607 45597
SES-8                   
1 39460U 13071A   26117.34211375 -.00000279  00000+0  00000+0 0  9994
2 39460   0.0208 259.7263 0002479 154.5888  19.1839  1.00271828 43916
INMARSAT 5-F1           
1 39476U 13073A   26117.13239314  .00000000  00000+0  00000+0 0  9994
2 39476   0.0104 231.2790 0000610 321.1943 132.8954  1.00270009 45066
TKSAT-1 (TUPAC KATARI)  
1 39481U 13075A   26117.43571725  .00000000  00000+0  00000+0 0  9990
2 39481   0.0081  93.8046 0002953 285.4828 265.8061  1.00270105 45094
EXPRESS-AM5             
1 39487U 13077A   26117.54035269 -.00000289  00000+0  00000+0 0  9998
2 39487   0.0200 253.8539 0001563  56.6907 239.5533  1.00273042 45859
GSAT-14                 
1 39498U 14001A   26117.11850242  .00000000  00000+0  00000+0 0  9997
2 39498   0.0231 100.2839 0002055 234.0156 357.4640  1.00269848 44866
THAICOM 6               
1 39500U 14002A   26117.35878153 -.00000131  00000+0  00000+0 0  9995
2 39500   0.0758  99.6636 0004097 345.7892 337.5706  1.00271661 44942
TDRS 12                 
1 39504U 14004A   26117.24489122 -.00000279  00000+0  00000+0 0  9996
2 39504   3.9291  18.2363 0001872 246.3222 357.9286  1.00269447 43762
ABS-2                   
1 39508U 14006A   26117.11850242  .00000000  00000+0  00000+0 0  9994
2 39508   0.0248  99.5084 0003730 301.9486 291.2383  1.00269751 44760
ATHENA-FIDUS            
1 39509U 14006B   26117.20600329  .00000000  00000+0  00000+0 0  9994
2 39509   0.0146 127.2520 0001574 278.7975 281.1050  1.00269864 44573
TURKSAT 4A              
1 39522U 14007A   26117.25877976  .00000136  00000+0  00000+0 0  9999
2 39522   0.0440 294.6700 0003344  29.5117  26.2177  1.00270744 44455
EXPRESS-AT1             
1 39612U 14010A   26117.07588818  .00000053  00000+0  00000+0 0  9995
2 39612   0.1266  84.1756 0001843  17.2846 198.5979  1.00289010 44303
EXPRESS-AT2             
1 39613U 14010B   26117.19489046  .00000068  00000+0  00000+0 0  9998
2 39613   0.0104 221.4585 0000401 134.1196 345.7657  1.00274045 43980
AMAZONAS 4A             
1 39616U 14011A   26117.48122836 -.00000262  00000+0  00000+0 0  9992
2 39616   0.0572 165.5948 0002520 248.0359 261.0775  1.00273057 44202
ASTRA 5B                
1 39617U 14011B   26117.36641940  .00000127  00000+0  00000+0 0  9991
2 39617   0.0666 308.4164 0002675  66.4979 355.8425  1.00270055 44159
IRNSS-1B                
1 39635U 14017A   26116.93254094  .00000074  00000+0  00000+0 0  9990
2 39635  29.0143 241.2832 0023443 182.2406 182.0336  1.00272944 44288
LUCH-5V                 
1 39727U 14023A   26117.47417492 -.00000274  00000+0  00000+0 0  9995
2 39727   5.0108  70.2422 0002294 339.6697  71.0176  1.00271727 43850
KAZSAT-3                
1 39728U 14023B   26117.13239314  .00000000  00000+0  00000+0 0  9990
2 39728   0.0178  85.2679 0000320 180.7792  55.2411  1.00270276 41944
EUTELSAT 3B             
1 39773U 14030A   26117.32891698  .00000010  00000+0  00000+0 0  9999
2 39773   0.0710  20.1439 0004023  12.7950 303.8879  1.00273004 43553
ASIASAT 8 (AMOS-7)      
1 40107U 14046A   26117.49365770  .00000000  00000+0  00000+0 0  9993
2 40107   0.0145 114.2985 0001582 284.1260 100.0800  1.00270396101642
ASIASAT 6               
1 40141U 14052A   26117.51232672 -.00000371  00000+0  00000+0 0  9997
2 40141   0.0553  76.3276 0000785 302.1438 141.3882  1.00272632 42575
OPTUS 10                
1 40146U 14054A   26117.52599564 -.00000156  00000+0  00000+0 0  9992
2 40146   0.1082  22.0032 0002013  12.8435 166.0353  1.00271099 42522
MEASAT-3B               
1 40147U 14054B   26117.33254490 -.00000252  00000+0  00000+0 0  9995
2 40147   0.0571  60.7849 0003305 337.9686  27.8159  1.00271774 42397
HIMAWARI-8              
1 40267U 14060A   26117.47142307  .00000000  00000+0  00000+0 0  9993
2 40267   0.0249  98.9674 0000953 303.3516 123.5216  1.00268326 42258
IRNSS-1C                
1 40269U 14061A   26117.00950125 -.00000166  00000+0  00000+0 0  9994
2 40269   6.3873  89.9018 0021574 357.9703 213.5568  1.00269611 42178
INTELSAT 30 (IS-30)     
1 40271U 14062A   26114.39488937 -.00000165  00000+0  00000+0 0  9993
2 40271   0.0073 224.7449 0002247  46.3663 348.4158  1.00269572  6259
ARSAT 1                 
1 40272U 14062B   26117.43543058  .00000000  00000+0  00000+0 0  9995
2 40272   0.0144  64.7735 0001947 328.3987 267.2025  1.00269386 42116
EUTELSAT 53A            
1 40277U 14064A   26117.25322468  .00000088  00000+0  00000+0 0  9998
2 40277   0.0203 249.8365 0000304  46.8274  62.7441  1.00272715 41051
GSAT-16                 
1 40332U 14078A   26117.19489045  .00000075  00000+0  00000+0 0  9999
2 40332   0.1177  84.4616 0006935 348.9178 267.0402  1.00272246 41596
DIRECTV 14              
1 40333U 14078B   26117.10183941 -.00000136  00000+0  00000+0 0  9996
2 40333   0.0115  56.2272 0000071  70.8345  25.4552  1.00272214 41536
YAMAL 401               
1 40345U 14082A   26115.63864148 -.00000243  00000+0  00000+0 0  9994
2 40345   0.0122 165.5853 0000644 235.6913 132.2360  1.00273371 41397
ASTRA 2G                
1 40364U 14089A   26117.36641940  .00000140  00000+0  00000+0 0  9992
2 40364   0.0578  32.2511 0004814  12.8877 330.3077  1.00271632 41452
FENGYUN 2G              
1 40367U 14090A   26117.46850824 -.00000308  00000+0  00000+0 0  9998
2 40367   5.5133  73.4139 0002868 145.1611 265.3398  1.00272279 41493
INMARSAT 5-F2           
1 40384U 15005A   26117.19438003  .00000000  00000+0  00000+0 0  9993
2 40384   0.0129 239.8308 0000640 113.1893 237.1321  1.00265813 40483
ABS-3A                  
1 40424U 15010A   26117.22267125 -.00000037  00000+0  00000+0 0  9994
2 40424   0.0137 257.8158 0001435  84.5846 309.9978  1.00269059 40866
EUTELSAT 115 WEST B     
1 40425U 15010B   26117.49103226 -.00000034  00000+0  00000+0 0  9992
2 40425   0.0103 103.4697 0000110  37.3133 136.5728  1.00270684 40883
EXPRESS-AM7             
1 40505U 15012A   26117.31225475  .00000141  00000+0  00000+0 0  9993
2 40505   0.0241  67.7738 0002993 324.3401 335.6045  1.00274391 40491
BEIDOU-3S IGSO-1S       
1 40549U 15019A   26112.98991377 -.00000171  00000+0  00000+0 0  9991
2 40549  49.2998 296.1212 0037208 189.9963 176.4804  1.00261100 40525
THOR 7                  
1 40613U 15022A   26117.22267126 -.00000019  00000+0  00000+0 0  9998
2 40613   0.0459  86.1413 0002802 303.4883 265.1021  1.00270445 40305
TURKMENALEM52E/MONACOSAT
1 40617U 15023A   26117.19489046  .00000000  00000+0  00000+0 0  9995
2 40617   0.0225  94.4648 0003192 306.1794 296.7206  1.00272383 40337
DIRECTV 15              
1 40663U 15026A   26117.48690759 -.00000112  00000+0  00000+0 0  9991
2 40663   0.0291  74.9055 0000365 122.3866  90.5923  1.00270914 39953
SKY MEXICO-1            
1 40664U 15026B   26117.47924867 -.00000244  00000+0  00000+0 0  9997
2 40664   0.0175 264.3713 0001899 127.5691 277.2433  1.00273360 39944
METEOSAT-11 (MSG-4)     
1 40732U 15034A   26117.11503289  .00000055  00000+0  00000+0 0  9993
2 40732   3.0740  71.3738 0001589 344.8606 209.8520  1.00264233  6705
STAR ONE C4             
1 40733U 15034B   26116.33516741  .00000000  00000+0  00000+0 0  9994
2 40733   0.0174  23.8120 0002649   2.7842 238.4124  1.00268250 39494
WGS F7 (USA 263)        
1 40746U 15036A   26117.46232014  .00000008  00000+0  00000+0 0  9991
2 40746   0.0148 267.8301 0000539 204.7119  84.3429  1.00271811 39366
INTELSAT 34 (IS-34)     
1 40874U 15039A   26117.19437998 -.00000296  00000+0  00000+0 0  9994
2 40874   0.0163 282.4548 0000463  47.5496 259.6678  1.00273682 39123
EUTELSAT 8 WEST B       
1 40875U 15039B   26117.22822620 -.00000076  00000+0  00000+0 0  9995
2 40875   0.0692 358.8325 0003889  38.6524 251.8993  1.00271826 39144
GSAT-6                  
1 40880U 15041A   26117.34767167 -.00000169  00000+0  00000+0 0  9994
2 40880   1.7884  83.1964 0003103 316.1360  23.7222  1.00272685 39087
INMARSAT 5-F3           
1 40882U 15042A   26117.46094911  .00000000  00000+0  00000+0 0  9993
2 40882   0.0132 235.3199 0000979 121.5412 204.1216  1.00275410 39067
TJS-1                   
1 40892U 15046A   26117.58090404 -.00000166  00000+0  00000+0 0  9998
2 40892   0.1935  84.0204 0005676 330.2155 165.4070  1.00269554 39067
EXPRESS-AM8             
1 40895U 15048A   26117.06167479 -.00000121  00000+0  00000+0 0  9994
2 40895   0.0137 258.1724 0000646  39.6480 285.4366  1.00275074 38836
COSMOS 1700 DEB         
1 40924U 85102G   26116.14857370  .00000040  00000+0  00000+0 0  9998
2 40924   9.7791 319.1187 0024950 123.2079 241.5981  1.00229916 66910
SKY MUSTER 1 (NBN1A)    
1 40940U 15054A   26117.54035269 -.00000287  00000+0  00000+0 0  9999
2 40940   0.0128 265.4339 0001806 126.2391 158.6375  1.00271369 38758
ARSAT 2                 
1 40941U 15054B   26117.47806652  .00000000  00000+0  00000+0 0  9996
2 40941   0.0143  71.7927 0002265 318.6053 276.1692  1.00269496 38799
MORELOS 3               
1 40946U 15056A   26117.49286012 -.00000052  00000+0  00000+0 0  9995
2 40946   3.1485  13.6714 0003103   0.9144 265.2314  1.00272394 38779
APSTAR-9                
1 40982U 15059A   26117.47142282 -.00000275  00000+0  00000+0 0  9993
2 40982   0.0595  62.4475 0000854 149.1476 315.5775  1.00270388 38611
TURKSAT 4B              
1 40984U 15060A   26117.20044858  .00000105  00000+0  00000+0 0  9999
2 40984   0.0433  80.6552 0002301 302.5670 314.1239  1.00269469 38586
ZHONGXING-2C            
1 41021U 15063A   26117.49566697 -.00000333  00000+0  00000+0 0  9990
2 41021   0.1438  92.4559 0006351 111.0417 293.8760  1.00272230 38474
GSAT-15                 
1 41028U 15065A   26117.34767167 -.00000268  00000+0  00000+0 0  9995
2 41028   0.0671 256.9490 0003759 145.7864  31.2749  1.00271871 38289
